[{"OBJECT_NAME":"STARLINK-3393","OBJECT_ID":"2022-005AE","EPOCH":"2026-03-09T22:35:04.653312","MEAN_MOTION":15.08842937,"ECCENTRICITY":0.00012416,"INCLINATION":53.218,"RA_OF_ASC_NODE":297.9942,"ARG_OF_PERICENTER":92.62,"MEAN_ANOMALY":267.4934,"EPHEMERIS_TYPE":0,"CLASSIFICATION_TYPE":"U","NORAD_CAT_ID":51132,"ELEMENT_SET_NO":999,"REV_AT_EPOCH":22876,"BSTAR":1.695093e-6,"MEAN_MOTION_DOT":-2.61e-6,"MEAN_MOTION_DDOT":0},{"OBJECT_NAME":"VANGUARD 3","OBJECT_ID":"1959-007A","EPOCH":"2026-03-09T21:30:28.728576","MEAN_MOTION":11.61868948,"ECCENTRICITY":0.16385199,"INCLINATION":33.3518,"RA_OF_ASC_NODE":264.4218,"ARG_OF_PERICENTER":241.275,"MEAN_ANOMALY":101.361,"EPHEMERIS_TYPE":0,"CLASSIFICATION_TYPE":"U","NORAD_CAT_ID":20,"ELEMENT_SET_NO":999,"REV_AT_EPOCH":47306,"BSTAR":0.00038398174,"MEAN_MOTION_DOT":1.001e-5,"MEAN_MOTION_DDOT":0}]
